COMMENT,ORIGINATOR,NORAD_CAT_ID,OBJECT_NAME,OBJECT_TYPE,CLASSIFICATION_TYPE,INTLDES,EPOCH,EPOCH_MICROSECONDS,MEAN_MOTION,ECCENTRICITY,INCLINATION,RA_OF_ASC_NODE,ARG_OF_PERICENTER,MEAN_ANOMALY,EPHEMERIS_TYPE,ELEMENT_SET_NO,REV_AT_EPOCH,BSTAR,MEAN_MOTION_DOT,MEAN_MOTION_DDOT,FILE,TLE_LINE0,TLE_LINE1,TLE_LINE2,OBJECT_ID,OBJECT_NUMBER,SEMIMAJOR_AXIS,PERIOD,APOGEE,PERIGEE,DECAYED
"GENERATED VIA SPACETRACK.ORG API","18 SPCS","55089","SPACEBEE-163","PAYLOAD","U","23001CJ","2024-04-16 03:36:36","816768","15.42604851","0.0007239","97.4217","172.6765","12.5537","347.5889","0","999","7154","0.0019949","0.00087617","0","4283117","0 SPACEBEE-163","1 55089U 23001CJ  24107.15042612  .00087617  00000-0  19949-2 0  9991","2 55089  97.4217 172.6765 0007239  12.5537 347.5889 15.42604851 71544","2023-001CJ","55089","6816.562","93.349","443.361","433.492","0"
"GENERATED VIA SPACETRACK.ORG API","18 SPCS","55089","SPACEBEE-163","PAYLOAD","U","23001CJ","2024-04-16 03:36:36","816768","15.42604851","0.0007239","97.4217","172.6765","12.5537","347.5889","0","999","7154","0.0019949","0.00087617","0","4283936","0 SPACEBEE-163","1 55089U 23001CJ  24107.15042612  .00087617  00000-0  19949-2 0  9991","2 55089  97.4217 172.6765 0007239  12.5537 347.5889 15.42604851 71544","2023-001CJ","55089","6816.562","93.349","443.361","433.492","0"
"GENERATED VIA SPACETRACK.ORG API","18 SPCS","55089","SPACEBEE-163","PAYLOAD","U","23001CJ","2024-04-16 17:37:15","707712","15.42736811","0.0007181","97.4217","173.2717","10.2085","349.9307","0","999","7163","0.0025723","0.00113882","0","4284470","0 SPACEBEE-163","1 55089U 23001CJ  24107.73420958  .00113882  00000-0  25723-2 0  9999","2 55089  97.4217 173.2717 0007181  10.2085 349.9307 15.42736811 71630","2023-001CJ","55089","6816.173","93.341","442.933","433.143","0"
"GENERATED VIA SPACETRACK.ORG API","18 SPCS","55089","SPACEBEE-163","PAYLOAD","U","23001CJ","2024-04-16 17:37:15","707712","15.42736811","0.0007181","97.4217","173.2717","10.2085","349.9307","0","999","7163","0.0025723","0.00113882","0","4284483","0 SPACEBEE-163","1 55089U 23001CJ  24107.73420958  .00113882  00000-0  25723-2 0  9999","2 55089  97.4217 173.2717 0007181  10.2085 349.9307 15.42736811 71630","2023-001CJ","55089","6816.173","93.341","442.933","433.143","0"
"GENERATED VIA SPACETRACK.ORG API","18 SPCS","55089","SPACEBEE-163","PAYLOAD","U","23001CJ","2024-04-17 13:51:24","242688","15.42914121","0.0007088","97.4217","174.1308","7.1408","352.9939","0","999","7176","0.0020607","0.00091492","0","4285817","0 SPACEBEE-163","1 55089U 23001CJ  24108.57736392  .00091492  00000-0  20607-2 0  9992","2 55089  97.4217 174.1308 0007088   7.1408 352.9939 15.42914121 71767","2023-001CJ","55089","6815.651","93.330","442.347","432.685","0"
"GENERATED VIA SPACETRACK.ORG API","18 SPCS","55089","SPACEBEE-163","PAYLOAD","U","23001CJ","2024-04-17 16:58:11","13024","15.42940456","0.0007078","97.4218","174.2631","6.4916","353.6422","0","999","7178","0.0020654","0.00091785","0","4286337","0 SPACEBEE-163","1 55089U 23001CJ  24108.70707191  .00091785  00000-0  20654-2 0  9999","2 55089  97.4218 174.2631 0007078   6.4916 353.6422 15.42940456 71780","2023-001CJ","55089","6815.573","93.328","442.262","432.614","0"
"GENERATED VIA SPACETRACK.ORG API","18 SPCS","55089","SPACEBEE-163","PAYLOAD","U","23001CJ","2024-04-17 16:58:11","13024","15.42940456","0.0007078","97.4218","174.2631","6.4916","353.6422","0","999","7178","0.0020654","0.00091785","0","4286350","0 SPACEBEE-163","1 55089U 23001CJ  24108.70707191  .00091785  00000-0  20654-2 0  9999","2 55089  97.4218 174.2631 0007078   6.4916 353.6422 15.42940456 71780","2023-001CJ","55089","6815.573","93.328","442.262","432.614","0"
"GENERATED VIA SPACETRACK.ORG API","18 SPCS","55089","SPACEBEE-163","PAYLOAD","U","23001CJ","2024-04-18 03:51:53","76672","15.43038046","0.0006975","97.4218","174.7253","4.3693","355.7614","0","999","7185","0.0021133","0.0009425","0","4286908","0 SPACEBEE-163","1 55089U 23001CJ  24109.16103098  .00094250  00000-0  21133-2 0  9999","2 55089  97.4218 174.7253 0006975   4.3693 355.7614 15.43038046 71857","2023-001CJ","55089","6815.286","93.322","441.905","432.397","0"
"GENERATED VIA SPACETRACK.ORG API","18 SPCS","55089","SPACEBEE-163","PAYLOAD","U","23001CJ","2024-04-18 03:51:53","76672","15.43038046","0.0006975","97.4218","174.7253","4.3693","355.7614","0","999","7185","0.0021133","0.0009425","0","4287604","0 SPACEBEE-163","1 55089U 23001CJ  24109.16103098  .00094250  00000-0  21133-2 0  9999","2 55089  97.4218 174.7253 0006975   4.3693 355.7614 15.43038046 71857","2023-001CJ","55089","6815.286","93.322","441.905","432.397","0"
"GENERATED VIA SPACETRACK.ORG API","18 SPCS","55089","SPACEBEE-163","PAYLOAD","U","23001CJ","2024-04-18 17:52:18","280128","15.4314427","0.0007079","97.4215","175.32","0.7173","359.4084","0","999","7194","0.0020758","0.00092892","0","4288150","0 SPACEBEE-163","1 55089U 23001CJ  24109.74465602  .00092892  00000-0  20758-2 0  9997","2 55089  97.4215 175.3200 0007079   0.7173 359.4084 15.43144270 71941","2023-001CJ","55089","6814.973","93.316","441.663","432.014","0"
"GENERATED VIA SPACETRACK.ORG API","18 SPCS","55089","SPACEBEE-163","PAYLOAD","U","23001CJ","2024-04-19 03:12:33","31296","15.43222881","0.0007023","97.4214","175.7163","358.7182","1.4046","0","999","7200","0.002274","0.00102159","0","4289403","0 SPACEBEE-163","1 55089U 23001CJ  24110.13371564  .00102159  00000-0  22740-2 0  9996","2 55089  97.4214 175.7163 0007023 358.7182   1.4046 15.43222881 72002","2023-001CJ","55089","6814.742","93.311","441.393","431.821","0"
"GENERATED VIA SPACETRACK.ORG API","18 SPCS","55089","SPACEBEE-163","PAYLOAD","U","23001CJ","2024-04-19 17:12:51","719328","15.43360934","0.0007053","97.4215","176.3112","356.221","3.8983","0","999","7209","0.0027454","0.00124279","0","4290008","0 SPACEBEE-163","1 55089U 23001CJ  24110.71726527  .00124279  00000-0  27454-2 0  9997","2 55089  97.4215 176.3112 0007053 356.2210   3.8983 15.43360934 72099","2023-001CJ","55089","6814.335","93.303","441.007","431.394","0"
"GENERATED VIA SPACETRACK.ORG API","18 SPCS","55089","SPACEBEE-163","PAYLOAD","U","23001CJ","2024-04-19 17:12:51","719328","15.43360934","0.0007053","97.4215","176.3112","356.221","3.8983","0","999","7209","0.0027454","0.00124279","0","4290026","0 SPACEBEE-163","1 55089U 23001CJ  24110.71726527  .00124279  00000-0  27454-2 0  9997","2 55089  97.4215 176.3112 0007053 356.2210   3.8983 15.43360934 72099","2023-001CJ","55089","6814.335","93.303","441.007","431.394","0"
"GENERATED VIA SPACETRACK.ORG API","18 SPCS","55089","SPACEBEE-163","PAYLOAD","U","23001CJ","2024-04-20 04:06:22","389408","15.43498135","0.0006927","97.4215","176.7734","354.3699","5.747","0","999","7216","0.002274","0.00103117","0","4290758","0 SPACEBEE-163","1 55089U 23001CJ  24111.17109247  .00103117  00000-0  22740-2 0  9993","2 55089  97.4215 176.7734 0006927 354.3699   5.7470 15.43498135 72167","2023-001CJ","55089","6813.932","93.295","440.517","431.077","0"
"GENERATED VIA SPACETRACK.ORG API","18 SPCS","55089","SPACEBEE-163","PAYLOAD","U","23001CJ","2024-04-20 04:06:22","389408","15.43498135","0.0006927","97.4215","176.7734","354.3699","5.747","0","999","7216","0.002274","0.00103117","0","4291469","0 SPACEBEE-163","1 55089U 23001CJ  24111.17109247  .00103117  00000-0  22740-2 0  9993","2 55089  97.4215 176.7734 0006927 354.3699   5.7470 15.43498135 72167","2023-001CJ","55089","6813.932","93.295","440.517","431.077","0"
"GENERATED VIA SPACETRACK.ORG API","18 SPCS","55089","SPACEBEE-163","PAYLOAD","U","23001CJ","2024-04-20 18:06:31","792896","15.436303","0.0006935","97.4212","177.3686","351.1947","8.9178","0","999","7225","0.0019683","0.00089484","0","4292106","0 SPACEBEE-163","1 55089U 23001CJ  24111.75453464  .00089484  00000-0  19683-2 0  9992","2 55089  97.4212 177.3686 0006935 351.1947   8.9178 15.43630300 72259","2023-001CJ","55089","6813.543","93.287","440.133","430.682","0"
"GENERATED VIA SPACETRACK.ORG API","18 SPCS","55089","SPACEBEE-163","PAYLOAD","U","23001CJ","2024-04-20 18:06:31","792896","15.436303","0.0006935","97.4212","177.3686","351.1947","8.9178","0","999","7225","0.0019683","0.00089484","0","4292116","0 SPACEBEE-163","1 55089U 23001CJ  24111.75453464  .00089484  00000-0  19683-2 0  9992","2 55089  97.4212 177.3686 0006935 351.1947   8.9178 15.43630300 72259","2023-001CJ","55089","6813.543","93.287","440.133","430.682","0"
"GENERATED VIA SPACETRACK.ORG API","18 SPCS","55089","SPACEBEE-163","PAYLOAD","U","23001CJ","2024-04-21 03:26:35","540160","15.43726644","0.0006966","97.4211","177.7646","349.7005","10.4099","0","999","7231","0.0019866","0.00090624","0","4292725","0 SPACEBEE-163","1 55089U 23001CJ  24112.14346690  .00090624  00000-0  19866-2 0  9999","2 55089  97.4211 177.7646 0006966 349.7005  10.4099 15.43726644 72314","2023-001CJ","55089","6813.259","93.281","439.870","430.378","0"
"GENERATED VIA SPACETRACK.ORG API","18 SPCS","55089","SPACEBEE-163","PAYLOAD","U","23001CJ","2024-04-21 03:26:35","540160","15.43726644","0.0006966","97.4211","177.7646","349.7005","10.4099","0","999","7231","0.0019866","0.00090624","0","4292766","0 SPACEBEE-163","1 55089U 23001CJ  24112.14346690  .00090624  00000-0  19866-2 0  9999","2 55089  97.4211 177.7646 0006966 349.7005  10.4099 15.43726644 72314","2023-001CJ","55089","6813.259","93.281","439.870","430.378","0"
"GENERATED VIA SPACETRACK.ORG API","18 SPCS","55089","SPACEBEE-163","PAYLOAD","U","23001CJ","2024-04-21 17:26:37","728384","15.43866374","0.0007054","97.4211","178.3595","347.3429","12.7641","0","999","7240","0.0026564","0.00122276","0","4293434","0 SPACEBEE-163","1 55089U 23001CJ  24112.72682556  .00122276  00000-0  26564-2 0  9999","2 55089  97.4211 178.3595 0007054 347.3429  12.7641 15.43866374 72400","2023-001CJ","55089","6812.848","93.272","439.519","429.907","0"
